{
  "type": "FeatureCollection",
  "features": [
    {
      "type": "Feature",
      "properties": {
        "norad_id": 33886,
        "name": "IRIDIUM 33 DEB",
        "group": "iridium-33-debris",
        "lat": -56.464961025481465,
        "lon": 63.40453818581619,
        "alt_km": 772.7724559857061,
        "timestamp": "2025-12-08T19:31:49.192527+00:00",
        "meta_object_name": "IRIDIUM 33 DEB",
        "meta_object_id": "1997-051BF",
        "meta_epoch": "2025-12-08T06:39:49.456800",
        "meta_mean_motion": 14.3604422,
        "meta_eccentricity": 0.0012092,
        "meta_inclination": 86.383,
        "meta_ra_of_asc_node": 69.1067,
        "meta_arg_of_pericenter": 258.8638,
        "meta_mean_anomaly": 154.6731,
        "meta_ephemeris_type": 0,
        "meta_classification_type": "U",
        "meta_norad_cat_id": 33886,
        "meta_element_set_no": 999,
        "meta_rev_at_epoch": 87988,
        "meta_bstar": 0.00039665769,
        "meta_mean_motion_dot": 1.173e-05,
        "meta_mean_motion_ddot": 0,
        "tle_line1": "1 33886U 97051BF  25342.27765575  .00001173  00000+0  39666-3 0  9994",
        "tle_line2": "2 33886  86.3830  69.1067 0012092 258.8638 154.6731 14.36044220879884"
      },
      "geometry": {
        "type": "Point",
        "coordinates": [
          63.40453818581619,
          -56.464961025481465
        ]
      }
    },
    {
      "type": "Feature",
      "properties": {
        "norad_id": 33887,
        "name": "IRIDIUM 33 DEB",
        "group": "iridium-33-debris",
        "lat": -43.03201304679174,
        "lon": -171.45665427626318,
        "alt_km": 771.712989398844,
        "timestamp": "2025-12-08T19:31:49.192537+00:00",
        "meta_object_name": "IRIDIUM 33 DEB",
        "meta_object_id": "1997-051BG",
        "meta_epoch": "2025-12-08T02:03:48.596832",
        "meta_mean_motion": 14.37214527,
        "meta_eccentricity": 0.00041412,
        "meta_inclination": 86.3047,
        "meta_ra_of_asc_node": 5.3979,
        "meta_arg_of_pericenter": 248.2358,
        "meta_mean_anomaly": 171.6777,
        "meta_ephemeris_type": 0,
        "meta_classification_type": "U",
        "meta_norad_cat_id": 33887,
        "meta_element_set_no": 999,
        "meta_rev_at_epoch": 88098,
        "meta_bstar": 0.00022751387,
        "meta_mean_motion_dot": 6.97e-06,
        "meta_mean_motion_ddot": 0,
        "tle_line1": "1 33887U 97051BG  25342.08597913  .00000697  00000+0  22751-3 0  9990",
        "tle_line2": "2 33887  86.3047   5.3979 0004141 248.2358 171.6777 14.37214527880989"
      },
      "geometry": {
        "type": "Point",
        "coordinates": [
          -171.45665427626318,
          -43.03201304679174
        ]
      }
    },
    {
      "type": "Feature",
      "properties": {
        "norad_id": 33953,
        "name": "IRIDIUM 33 DEB",
        "group": "iridium-33-debris",
        "lat": -3.812178569445674,
        "lon": -124.27525505657222,
        "alt_km": 707.3825048489462,
        "timestamp": "2025-12-08T19:31:49.192546+00:00",
        "meta_object_name": "IRIDIUM 33 DEB",
        "meta_object_id": "1997-051BN",
        "meta_epoch": "2025-12-08T05:44:14.047872",
        "meta_mean_motion": 14.55254775,
        "meta_eccentricity": 0.00185004,
        "meta_inclination": 86.3843,
        "meta_ra_of_asc_node": 55.7327,
        "meta_arg_of_pericenter": 116.5091,
        "meta_mean_anomaly": 298.0526,
        "meta_ephemeris_type": 0,
        "meta_classification_type": "U",
        "meta_norad_cat_id": 33953,
        "meta_element_set_no": 999,
        "meta_rev_at_epoch": 88238,
        "meta_bstar": 0.0016404232,
        "meta_mean_motion_dot": 7.139e-05,
        "meta_mean_motion_ddot": 0,
        "tle_line1": "1 33953U 97051BN  25342.23905148  .00007139  00000+0  16404-2 0  9999",
        "tle_line2": "2 33953  86.3843  55.7327 0018500 116.5091 298.0526 14.55254775882389"
      },
      "geometry": {
        "type": "Point",
        "coordinates": [
          -124.27525505657222,
          -3.812178569445674
        ]
      }
    },
    {
      "type": "Feature",
      "properties": {
        "norad_id": 33960,
        "name": "IRIDIUM 33 DEB",
        "group": "iridium-33-debris",
        "lat": -71.57031626344317,
        "lon": -79.97624459118042,
        "alt_km": 625.2528986826428,
        "timestamp": "2025-12-08T19:31:49.192556+00:00",
        "meta_object_name": "IRIDIUM 33 DEB",
        "meta_object_id": "1997-051BV",
        "meta_epoch": "2025-12-08T07:28:00.962400",
        "meta_mean_motion": 14.84826092,
        "meta_eccentricity": 0.00072734,
        "meta_inclination": 86.2534,
        "meta_ra_of_asc_node": 291.6014,
        "meta_arg_of_pericenter": 68.7377,
        "meta_mean_anomaly": 54.3556,
        "meta_ephemeris_type": 0,
        "meta_classification_type": "U",
        "meta_norad_cat_id": 33960,
        "meta_element_set_no": 999,
        "meta_rev_at_epoch": 88801,
        "meta_bstar": 0.0037755424,
        "meta_mean_motion_dot": 0.00032208,
        "meta_mean_motion_ddot": 0,
        "tle_line1": "1 33960U 97051BV  25342.31112225  .00032208  00000+0  37755-2 0  9999",
        "tle_line2": "2 33960  86.2534 291.6014 0007273  68.7377  54.3556 14.84826092888018"
      },
      "geometry": {
        "type": "Point",
        "coordinates": [
          -79.97624459118042,
          -71.57031626344317
        ]
      }
    },
    {
      "type": "Feature",
      "properties": {
        "norad_id": 33966,
        "name": "IRIDIUM 33 DEB",
        "group": "iridium-33-debris",
        "lat": 29.97228481552442,
        "lon": 49.79723331336035,
        "alt_km": 730.4654800329017,
        "timestamp": "2025-12-08T19:31:49.192566+00:00",
        "meta_object_name": "IRIDIUM 33 DEB",
        "meta_object_id": "1997-051CB",
        "meta_epoch": "2025-12-08T06:27:26.678592",
        "meta_mean_motion": 14.49566068,
        "meta_eccentricity": 0.00068989,
        "meta_inclination": 86.3924,
        "meta_ra_of_asc_node": 47.9458,
        "meta_arg_of_pericenter": 203.4642,
        "meta_mean_anomaly": 225.9934,
        "meta_ephemeris_type": 0,
        "meta_classification_type": "U",
        "meta_norad_cat_id": 33966,
        "meta_element_set_no": 999,
        "meta_rev_at_epoch": 88377,
        "meta_bstar": 0.00088724564,
        "meta_mean_motion_dot": 3.424e-05,
        "meta_mean_motion_ddot": 0,
        "tle_line1": "1 33966U 97051CB  25342.26905878  .00003424  00000+0  88725-3 0  9995",
        "tle_line2": "2 33966  86.3924  47.9458 0006898 203.4642 225.9934 14.49566068883776"
      },
      "geometry": {
        "type": "Point",
        "coordinates": [
          49.79723331336035,
          29.97228481552442
        ]
      }
    },
    {
      "type": "Feature",
      "properties": {
        "norad_id": 34071,
        "name": "IRIDIUM 33 DEB",
        "group": "iridium-33-debris",
        "lat": 80.89344835270526,
        "lon": 176.03722882541277,
        "alt_km": 713.6022210946057,
        "timestamp": "2025-12-08T19:31:49.192575+00:00",
        "meta_object_name": "IRIDIUM 33 DEB",
        "meta_object_id": "1997-051CE",
        "meta_epoch": "2025-12-08T04:10:00.113088",
        "meta_mean_motion": 14.49433569,
        "meta_eccentricity": 0.00097725,
        "meta_inclination": 86.3456,
        "meta_ra_of_asc_node": 19.8129,
        "meta_arg_of_pericenter": 119.8612,
        "meta_mean_anomaly": 240.3564,
        "meta_ephemeris_type": 0,
        "meta_classification_type": "U",
        "meta_norad_cat_id": 34071,
        "meta_element_set_no": 999,
        "meta_rev_at_epoch": 88268,
        "meta_bstar": 0.00080948952,
        "meta_mean_motion_dot": 3.118e-05,
        "meta_mean_motion_ddot": 0,
        "tle_line1": "1 34071U 97051CE  25342.17361242  .00003118  00000+0  80949-3 0  9994",
        "tle_line2": "2 34071  86.3456  19.8129 0009772 119.8612 240.3564 14.49433569882686"
      },
      "geometry": {
        "type": "Point",
        "coordinates": [
          176.03722882541277,
          80.89344835270526
        ]
      }
    },
    {
      "type": "Feature",
      "properties": {
        "norad_id": 34077,
        "name": "IRIDIUM 33 DEB",
        "group": "iridium-33-debris",
        "lat": 83.24241684123629,
        "lon": 85.47232353232347,
        "alt_km": 664.1349478470465,
        "timestamp": "2025-12-08T19:31:49.192585+00:00",
        "meta_object_name": "IRIDIUM 33 DEB",
        "meta_object_id": "1997-051CL",
        "meta_epoch": "2025-12-08T06:21:27.927648",
        "meta_mean_motion": 14.64735886,
        "meta_eccentricity": 0.0010653,
        "meta_inclination": 86.3859,
        "meta_ra_of_asc_node": 53.4785,
        "meta_arg_of_pericenter": 53.6579,
        "meta_mean_anomaly": 18.2931,
        "meta_ephemeris_type": 0,
        "meta_classification_type": "U",
        "meta_norad_cat_id": 34077,
        "meta_element_set_no": 999,
        "meta_rev_at_epoch": 88267,
        "meta_bstar": 0.0020419364,
        "meta_mean_motion_dot": 0.00010911,
        "meta_mean_motion_ddot": 0,
        "tle_line1": "1 34077U 97051CL  25342.26490657  .00010911  00000+0  20419-2 0  9997",
        "tle_line2": "2 34077  86.3859  53.4785 0010653  53.6579  18.2931 14.64735886882671"
      },
      "geometry": {
        "type": "Point",
        "coordinates": [
          85.47232353232347,
          83.24241684123629
        ]
      }
    }
  ]
}